start=new Date('2022-08-17T00:00:00.000Z').valueOf();
sats=[{"TLE_LINE2":"2 45192  53.0560 126.9545 0001524  74.1805 285.9352 15.06400554138759","APOAPSIS":"548.267","FILE":"3538178","SITE":"AFETR","DECAY_DATE":null,"PERIAPSIS":"546.156","MEAN_MOTION_DOT":"0.00001679","MEAN_MOTION":"15.06400554","NORAD_CAT_ID":"45192","MEAN_ELEMENT_THEORY":"SGP4","CLASSIFICATION_TYPE":"U","ARG_OF_PERICENTER":"74.1805","PERIOD":"95.592","TLE_LINE1":"1 45192U 20012Q   22228.70659648  .00001679  00000-0  13161-3 0  9995","GP_ID":"210364294","RCS_SIZE":"LARGE","REV_AT_EPOCH":"13875","CENTER_NAME":"EARTH","OBJECT_TYPE":"PAYLOAD","TIME_SYSTEM":"UTC","OBJECT_NAME":"STARLINK-1237","MEAN_MOTION_DDOT":"0.0000000000000","RA_OF_ASC_NODE":"126.9545","INCLINATION":"53.0560","LAUNCH_DATE":"2020-02-17","ECCENTRICITY":"0.00015240","BSTAR":"0.00013161000000","EPHEMERIS_TYPE":"0","SEMIMAJOR_AXIS":"6925.347","EPOCH":"2022-08-16T16:57:29.935872","MEAN_ANOMALY":"285.9352","REF_FRAME":"TEME","ELEMENT_SET_NO":"999","COUNTRY_CODE":"US","OBJECT_ID":"2020-012Q"},{"FILE":"3538178","APOAPSIS":"548.140","SITE":"AFETR","TLE_LINE2":"2 45193  53.0543 126.7145 0001307  59.7685 300.3434 15.06393024138700","MEAN_MOTION_DOT":"0.00000719","MEAN_MOTION":"15.06393024","DECAY_DATE":null,"PERIAPSIS":"546.330","CLASSIFICATION_TYPE":"U","ARG_OF_PERICENTER":"59.7685","PERIOD":"95.593","NORAD_CAT_ID":"45193","MEAN_ELEMENT_THEORY":"SGP4","GP_ID":"210364045","RCS_SIZE":"LARGE","TLE_LINE1":"1 45193U 20012R   22228.76190057  .00000719  00000-0  67179-4 0  9999","OBJECT_NAME":"STARLINK-1239","MEAN_MOTION_DDOT":"0.0000000000000","REV_AT_EPOCH":"13870","CENTER_NAME":"EARTH","OBJECT_TYPE":"PAYLOAD","TIME_SYSTEM":"UTC","INCLINATION":"53.0543","RA_OF_ASC_NODE":"126.7145","BSTAR":"0.00006717900000","LAUNCH_DATE":"2020-02-17","ECCENTRICITY":"0.00013070","COUNTRY_CODE":"US","OBJECT_ID":"2020-012R","ELEMENT_SET_NO":"999","EPHEMERIS_TYPE":"0","REF_FRAME":"TEME","SEMIMAJOR_AXIS":"6925.370","EPOCH":"2022-08-16T18:17:08.209248","MEAN_ANOMALY":"300.3434"},{"ARG_OF_PERICENTER":"73.1676","CLASSIFICATION_TYPE":"U","PERIOD":"95.593","MEAN_ELEMENT_THEORY":"SGP4","NORAD_CAT_ID":"45194","RCS_SIZE":"LARGE","GP_ID":"210365294","TLE_LINE1":"1 45194U 20012S   22228.43384849  .00001956  00000-0  15022-3 0  9991","FILE":"3538178","APOAPSIS":"548.250","SITE":"AFETR","TLE_LINE2":"2 45194  53.0538 128.1911 0001462  73.1676 286.9473 15.06392301138602","MEAN_MOTION":"15.06392301","MEAN_MOTION_DOT":"0.00001956","DECAY_DATE":null,"PERIAPSIS":"546.225","BSTAR":"0.00015022000000","LAUNCH_DATE":"2020-02-17","ECCENTRICITY":"0.00014620","COUNTRY_CODE":"US","OBJECT_ID":"2020-012S","ELEMENT_SET_NO":"999","EPHEMERIS_TYPE":"0","MEAN_ANOMALY":"286.9473","SEMIMAJOR_AXIS":"6925.372","REF_FRAME":"TEME","EPOCH":"2022-08-16T10:24:44.509536","OBJECT_NAME":"STARLINK-1240","MEAN_MOTION_DDOT":"0.0000000000000","OBJECT_TYPE":"PAYLOAD","CENTER_NAME":"EARTH","REV_AT_EPOCH":"13860","TIME_SYSTEM":"UTC","RA_OF_ASC_NODE":"128.1911","INCLINATION":"53.0538"},{"RA_OF_ASC_NODE":"124.7409","INCLINATION":"53.0501","TIME_SYSTEM":"UTC","OBJECT_TYPE":"PAYLOAD","CENTER_NAME":"EARTH","REV_AT_EPOCH":"13875","MEAN_MOTION_DDOT":"0.0000000000000","OBJECT_NAME":"STARLINK-1241","REF_FRAME":"TEME","SEMIMAJOR_AXIS":"6908.815","EPOCH":"2022-08-16T10:23:37.949568","MEAN_ANOMALY":"236.3455","EPHEMERIS_TYPE":"0","COUNTRY_CODE":"US","OBJECT_ID":"2020-012T","ELEMENT_SET_NO":"999","ECCENTRICITY":"0.00015410","LAUNCH_DATE":"2020-02-17","BSTAR":"0.00073476000000","PERIAPSIS":"529.616","DECAY_DATE":null,"MEAN_MOTION":"15.11810613","MEAN_MOTION_DOT":"0.00012419","TLE_LINE2":"2 45195  53.0501 124.7409 0001541 123.7683 236.3455 15.11810613138757","SITE":"AFETR","APOAPSIS":"531.745","FILE":"3538178","TLE_LINE1":"1 45195U 20012T   22228.43307812  .00012419  00000-0  73476-3 0  9990","RCS_SIZE":"LARGE","GP_ID":"210365045","NORAD_CAT_ID":"45195","MEAN_ELEMENT_THEORY":"SGP4","PERIOD":"95.250","ARG_OF_PERICENTER":"123.7683","CLASSIFICATION_TYPE":"U"},{"TIME_SYSTEM":"UTC","CENTER_NAME":"EARTH","REV_AT_EPOCH":"13880","OBJECT_TYPE":"PAYLOAD","MEAN_MOTION_DDOT":"0.0000000000000","OBJECT_NAME":"STARLINK-1244","INCLINATION":"53.0550","RA_OF_ASC_NODE":"126.7843","ECCENTRICITY":"0.00013170","LAUNCH_DATE":"2020-02-17","BSTAR":"-0.00002174700000","REF_FRAME":"TEME","SEMIMAJOR_AXIS":"6925.368","EPOCH":"2022-08-16T17:55:53.536224","MEAN_ANOMALY":"284.7583","EPHEMERIS_TYPE":"0","OBJECT_ID":"2020-012U","COUNTRY_CODE":"US","ELEMENT_SET_NO":"999","TLE_LINE2":"2 45196  53.0550 126.7843 0001317  75.3551 284.7583 15.06393765138806","SITE":"AFETR","FILE":"3538178","APOAPSIS":"548.145","PERIAPSIS":"546.321","DECAY_DATE":null,"MEAN_MOTION_DOT":"-0.00000605","MEAN_MOTION":"15.06393765","NORAD_CAT_ID":"45196","MEAN_ELEMENT_THEORY":"SGP4","PERIOD":"95.593","CLASSIFICATION_TYPE":"U","ARG_OF_PERICENTER":"75.3551","TLE_LINE1":"1 45196U 20012U   22228.74714741 -.00000605  00000-0 -21747-4 0  9999","GP_ID":"210363795","RCS_SIZE":"LARGE"},{"OBJECT_TYPE":"PAYLOAD","CENTER_NAME":"EARTH","REV_AT_EPOCH":"13872","TIME_SYSTEM":"UTC","OBJECT_NAME":"STARLINK-1269","MEAN_MOTION_DDOT":"0.0000000000000","RA_OF_ASC_NODE":"126.8325","INCLINATION":"53.0532","LAUNCH_DATE":"2020-02-17","ECCENTRICITY":"0.00018670","BSTAR":"0.00025355000000","EPHEMERIS_TYPE":"0","SEMIMAJOR_AXIS":"6925.335","MEAN_ANOMALY":"295.6388","REF_FRAME":"TEME","EPOCH":"2022-08-16T17:39:58.284864","ELEMENT_SET_NO":"999","COUNTRY_CODE":"US","OBJECT_ID":"2020-012V","TLE_LINE2":"2 45197  53.0532 126.8325 0001867  64.4794 295.6388 15.06404499138723","FILE":"3538178","APOAPSIS":"548.493","SITE":"AFETR","DECAY_DATE":null,"PERIAPSIS":"545.907","MEAN_MOTION":"15.06404499","MEAN_MOTION_DOT":"0.00003497","NORAD_CAT_ID":"45197","MEAN_ELEMENT_THEORY":"SGP4","ARG_OF_PERICENTER":"64.4794","CLASSIFICATION_TYPE":"U","PERIOD":"95.592","TLE_LINE1":"1 45197U 20012V   22228.73609126  .00003497  00000-0  25355-3 0  9997","RCS_SIZE":"LARGE","GP_ID":"210364544"},{"LAUNCH_DATE":"2020-02-17","ECCENTRICITY":"0.00015040","BSTAR":"0.00022274000000","EPHEMERIS_TYPE":"0","SEMIMAJOR_AXIS":"6925.371","EPOCH":"2022-08-16T09:28:59.541312","REF_FRAME":"TEME","MEAN_ANOMALY":"285.9650","COUNTRY_CODE":"US","ELEMENT_SET_NO":"999","OBJECT_ID":"2020-012W","OBJECT_TYPE":"PAYLOAD","REV_AT_EPOCH":"13892","CENTER_NAME":"EARTH","TIME_SYSTEM":"UTC","OBJECT_NAME":"STARLINK-1154","MEAN_MOTION_DDOT":"0.0000000000000","INCLINATION":"53.0546","RA_OF_ASC_NODE":"108.3569","NORAD_CAT_ID":"45198","MEAN_ELEMENT_THEORY":"SGP4","ARG_OF_PERICENTER":"74.1504","CLASSIFICATION_TYPE":"U","PERIOD":"95.593","TLE_LINE1":"1 45198U 20012W   22228.39513358  .00003037  00000-0  22274-3 0  9998","RCS_SIZE":"LARGE","GP_ID":"210334569","TLE_LINE2":"2 45198  53.0546 108.3569 0001504  74.1504 285.9650 15.06392824138923","FILE":"3537973","APOAPSIS":"548.277","SITE":"AFETR","DECAY_DATE":null,"PERIAPSIS":"546.194","MEAN_MOTION":"15.06392824","MEAN_MOTION_DOT":"0.00003037"},{"MEAN_ELEMENT_THEORY":"SGP4","NORAD_CAT_ID":"45199","ARG_OF_PERICENTER":"88.9356","CLASSIFICATION_TYPE":"U","PERIOD":"95.592","TLE_LINE1":"1 45199U 20012X   22228.66421137 -.00000351  00000-0 -46775-5 0  9994","RCS_SIZE":"LARGE","GP_ID":"210365545","TLE_LINE2":"2 45199  53.0558 107.1473 0001523  88.9356 271.1808 15.06397197139029","APOAPSIS":"548.277","FILE":"3538178","SITE":"AFETR","DECAY_DATE":null,"PERIAPSIS":"546.167","MEAN_MOTION":"15.06397197","MEAN_MOTION_DOT":"-0.00000351","LAUNCH_DATE":"2020-02-17","ECCENTRICITY":"0.00015230","BSTAR":"-0.00000467750000","EPHEMERIS_TYPE":"0","EPOCH":"2022-08-16T15:56:27.862368","SEMIMAJOR_AXIS":"6925.357","REF_FRAME":"TEME","MEAN_ANOMALY":"271.1808","COUNTRY_CODE":"US","OBJECT_ID":"2020-012X","ELEMENT_SET_NO":"999","OBJECT_TYPE":"PAYLOAD","CENTER_NAME":"EARTH","REV_AT_EPOCH":"13902","TIME_SYSTEM":"UTC","OBJECT_NAME":"STARLINK-1197","MEAN_MOTION_DDOT":"0.0000000000000","RA_OF_ASC_NODE":"107.1473","INCLINATION":"53.0558"},{"OBJECT_TYPE":"PAYLOAD","CENTER_NAME":"EARTH","REV_AT_EPOCH":"13902","TIME_SYSTEM":"UTC","OBJECT_NAME":"STARLINK-1199","MEAN_MOTION_DDOT":"0.0000000000000","RA_OF_ASC_NODE":"107.1023","INCLINATION":"53.0561","LAUNCH_DATE":"2020-02-17","ECCENTRICITY":"0.00011030","BSTAR":"0.00005071800000","EPHEMERIS_TYPE":"0","SEMIMAJOR_AXIS":"6925.376","REF_FRAME":"TEME","EPOCH":"2022-08-16T16:07:04.852416","MEAN_ANOMALY":"267.6305","ELEMENT_SET_NO":"999","COUNTRY_CODE":"US","OBJECT_ID":"2020-012Z","TLE_LINE2":"2 45201  53.0561 107.1023 0001103  92.4811 267.6305 15.06390907139022","APOAPSIS":"548.005","FILE":"3538178","SITE":"AFETR","DECAY_DATE":null,"PERIAPSIS":"546.478","MEAN_MOTION":"15.06390907","MEAN_MOTION_DOT":"0.00000474","MEAN_ELEMENT_THEORY":"SGP4","NORAD_CAT_ID":"45201","ARG_OF_PERICENTER":"92.4811","CLASSIFICATION_TYPE":"U","PERIOD":"95.593","TLE_LINE1":"1 45201U 20012Z   22228.67158394  .00000474  00000-0  50718-4 0  9996","RCS_SIZE":"LARGE","GP_ID":"210364295"},{"APOAPSIS":"515.672","FILE":"3537973","SITE":"AFETR","TLE_LINE2":"2 45202  52.9784 110.6789 0001991  67.8888 292.2316 15.17203388138899","MEAN_MOTION_DOT":"0.00013300","MEAN_MOTION":"15.17203388","DECAY_DATE":null,"PERIAPSIS":"512.927","CLASSIFICATION_TYPE":"U","ARG_OF_PERICENTER":"67.8888","PERIOD":"94.911","NORAD_CAT_ID":"45202","MEAN_ELEMENT_THEORY":"SGP4","GP_ID":"210335322","RCS_SIZE":"LARGE","TLE_LINE1":"1 45202U 20012AA  22228.08488187  .00013300  00000-0  67546-3 0  9996","OBJECT_NAME":"STARLINK-1203","MEAN_MOTION_DDOT":"0.0000000000000","CENTER_NAME":"EARTH","REV_AT_EPOCH":"13889","OBJECT_TYPE":"PAYLOAD","TIME_SYSTEM":"UTC","RA_OF_ASC_NODE":"110.6789","INCLINATION":"52.9784","BSTAR":"0.00067546000000","LAUNCH_DATE":"2020-02-17","ECCENTRICITY":"0.00019910","COUNTRY_CODE":"US","ELEMENT_SET_NO":"999","OBJECT_ID":"2020-012AA","EPHEMERIS_TYPE":"0","SEMIMAJOR_AXIS":"6892.434","EPOCH":"2022-08-16T02:02:13.793568","REF_FRAME":"TEME","MEAN_ANOMALY":"292.2316"}];
